#aV2020  3  8  0  0  0.00000000     288 DD+AD WGS84 FIT  NGA
## 2096      0.00000000   300.00000000 58916 0.0000000000000
+   32     1  2  3  4  5  6  7  8  9 10 11 12 13 14 15 16 17
+         18 19 20 21 22 23 24 25 26 27 28 29 30 31 32  0  0
+          0  0  0  0  0  0  0  0  0  0  0  0  0  0  0  0  0
+          0  0  0  0  0  0  0  0  0  0  0  0  0  0  0  0  0
+          0  0  0  0  0  0  0  0  0  0  0  0  0  0  0  0  0
++         2  2  2  2  2  2  2  2  2  2  2  2  2  2  2  2  2
++         2  2  2  2  2  2  2  2  2  2  2  2  2  2  2  0  0
++         0  0  0  0  0  0  0  0  0  0  0  0  0  0  0  0  0
++         0  0  0  0  0  0  0  0  0  0  0  0  0  0  0  0  0
++         0  0  0  0  0  0  0  0  0  0  0  0  0  0  0  0  0
%c cc cc ccc ccc cccc cccc cccc cccc ccccc ccccc ccccc ccccc
%c cc cc ccc ccc cccc cccc cccc cccc ccccc ccccc ccccc ccccc
%f  0.0000000  0.000000000  0.00000000000  0.000000000000000
%f  0.0000000  0.000000000  0.00000000000  0.000000000000000
%i    0    0    0    0      0      0      0      0         0
%i    0    0    0    0      0      0      0      0         0
/*      NGA, ST. LOUIS,MO.                                  
/*   EPHEMERIS COMPUTED FROM 2 DAYS OF DATA                 
/*   EPOCHA v5 SMOOTHER                                     
/*   G1762 IERS2010 SATAF SATAPC                            
*  2020  3  8 10 55  0.00000000
P  1 -13569.205085  10604.157379  19912.752435   -319.022655                    
V  1   -711.764322 -25814.795074  13446.581890     -0.123853                    
P  2  13307.538956  13829.584492 -17751.798351   -418.162572                    
V  2   -379.891224  23889.150800  17622.631229     -0.067446                    
P  3 -23048.008648  13090.346956   -151.864614   -112.593097                    
V  3  -1467.692084  -2351.837123  31914.746734     -0.096223                    
P  4 -17544.359769   4883.290836 -19335.085426    -59.316478                    
V  4 -20045.623191 -14250.585431  14558.509572     -0.053227                    
P  5  20021.721877   2471.638513 -17507.883097     -8.774554                    
V  5 -17894.360118  12775.692532 -18609.397630     -0.006137                    
P  6   7185.579767  23050.455490 -10966.501908   -226.157774                    
V  6  -2123.283157  13979.031645  27889.180715     -0.087509                    
P  7  -5877.254655  24430.887537  -7515.644644   -231.060360                    
V  7  -3097.361915 -10142.009113 -29889.414180     -0.085123                    
P  8 -23553.809580  -4082.886866  11865.319527    -26.366019                    
V  8 -12001.441259  -9072.860018 -26758.337879     -0.013391                    
P  9  -7614.231518  13395.097981 -21689.552585   -171.976689                    
V  9 -23839.249468 -13583.513995    -37.211241     -0.082428                    
P 10    584.759827 -16752.894494  20629.359098   -270.324406                    
V 10  23152.360185 -11988.416185 -10659.982166     -0.126867                    
P 11 -17086.822279   -117.610273  19782.737048   -339.996870                    
V 11 -10239.902506 -24465.509767  -9072.124662      0.108030                    
P 12  24364.532300 -10100.217149   1978.434613    143.048082                    
V 12  -1509.993213   3353.189245  32142.574081     -0.042306                    
P 13  22716.328454  12446.390313   5948.803273     -7.356217                    
V 13   4578.829431   6639.797222 -30663.663221      0.028400                    
P 14 -17290.462495 -18856.453102   7818.527369    -27.684640                    
V 14   9103.236885   3449.253787  29548.812981      0.024627                    
P 15  23875.451957   1399.056031  11636.277917   -246.431430                    
V 15  12537.057516   9071.252417 -25743.580678      0.026212                    
P 16 -20058.932416  -3787.263944 -17447.126756   -132.684895                    
V 16  19178.485501  -9819.353429 -19722.401090     -0.042541                    
P 17   9241.209176  19214.239120  16293.817617    228.567105                    
V 17 -17180.809185  -9990.825777  22057.854287      0.062402                    
P 18 -14972.331073   1763.626241  21358.506189      6.053214                    
V 18  -1437.981714 -28314.368320   1383.347499      0.015647                    
P 19  15891.107636  19160.922374   8966.952709   -188.625274                    
V 19 -10671.764951  -5374.290625  29433.878373      0.051353                    
P 20  10544.610075 -20247.035293  13316.321642    527.875014                    
V 20  15584.992183  -7883.527835 -24384.393914     -0.000209                    
P 21   2692.405919 -25732.037614  -5768.787026    -30.704745                    
V 21   3372.662742   8125.671117 -30246.564514      0.052295                    
P 22 -23712.234946   8249.081348   8695.401488   -785.382823                    
V 22   6988.697908  -8988.221401  28428.494034     -0.001963                    
P 23 -17252.153553   6119.885686 -19009.964649   -131.181671                    
V 23 -20988.787347 -13371.305619  14095.785710      0.026707                    
P 24  14452.467136  -8782.756526  20205.241793    -10.072815                    
V 24   2598.458348  26174.337680   9789.499692     -0.005099                    
P 25  18362.276445 -17075.809760  -8556.295725    -10.049215                    
V 25  10529.077625  -2928.793845  29506.426804      0.017832                    
P 26 -12130.608392 -10487.906971 -21230.997680    163.364450                    
V 26  22750.544631 -14369.532069  -5689.486566      0.075868                    
P 27 -23561.773108 -12515.502627   1739.602358   -232.506585                    
V 27  -1015.458919  -2882.362704 -31823.643331     -0.108340                    
P 28   -522.662864  16197.447340  21658.117081    734.340514                    
V 28 -23959.248649  10244.045430  -8335.688959     -0.026288                    
P 29   9703.052411 -11105.105896 -22125.463182    -51.394874                    
V 29  22960.896482  15910.108146   2071.080089     -0.093274                    
P 30   1190.377307  26223.958383   3266.726342   -170.551575                    
V 30  -3841.906456   3977.684383 -31017.710308     -0.087923                    
P 31  -8599.721026 -21076.826179 -13331.616611    -28.062346                    
V 31   3246.963472 -16943.400188  25215.724981     -0.024917                    
P 32 -11029.508173 -18852.590224  15281.232924    231.071841                    
V 32  17620.658157   7951.798142  22492.495947      0.093004                    
EOF
